     2.100          NAVIGATION                              RINEX VERSION / TYPE
fic2rin                                 01/11/2015 00:23:58 PGM / RUN BY / DATE
                                                            END OF HEADER
 9 15  1 10 10  0  0.0 -.509410165250D-04 -.110276232590D-10  .000000000000D+00
     .270000000000D+02 -.100000000000D+01  .483805866742D-08 -.276849610362D+01
    -.838190317154D-07  .266162329353D-03  .547058880329D-05  .515366854668D+04
     .554400000000D+06  .558793544769D-08  .266134934000D+01 -.111758708954D-07
     .958566860272D+00  .273562500000D+03  .234088359396D+01 -.825641534141D-08
    -.231795369493D-09  .100000000000D+01  .182600000000D+04  .000000000000D+00
     .240000000000D+01  .000000000000D+00  .465661287308D-09  .270000000000D+02
     .547206000000D+06  .400000000000D+01
10 15  1 10 10  0  0.0 -.158136244863D-03 -.170530256582D-11  .000000000000D+00
     .160000000000D+02  .462812500000D+02  .504342436458D-08 -.116655625657D+01
     .251084566116D-05  .145092017483D-01  .829435884953D-05  .515364967918D+04
     .554400000000D+06  .331550836563D-06  .162736702660D+01  .249594449997D-06
     .941090116752D+00  .207437500000D+03  .915094811498D+00 -.830391732006D-08
     .235724104569D-09  .100000000000D+01  .182600000000D+04  .000000000000D+00
     .240000000000D+01  .000000000000D+00 -.325962901115D-08  .160000000000D+02
     .547206000000D+06  .400000000000D+01
11 15  1 10 10  0  0.0 -.549804419279D-03 -.261479726760D-11  .000000000000D+00
     .830000000000D+02 -.852500000000D+02  .622347351837D-08  .133770715786D+01
    -.463239848614D-05  .156127152732D-01  .788643956184D-05  .515372439194D+04
     .554400000000D+06 -.325962901115D-06  .235622239389D+00 -.255182385445D-06
     .892474762539D+00  .195000000000D+03  .137381896149D+01 -.896787354793D-08
    -.168578450541D-09  .100000000000D+01  .182600000000D+04  .000000000000D+00
     .240000000000D+01  .000000000000D+00 -.121071934700D-07  .830000000000D+02
     .547206000000D+06  .400000000000D+01
12 15  1 10 10  0  0.0  .260247848928D-03  .295585778076D-11  .000000000000D+00
     .110000000000D+02  .535000000000D+02  .399230915284D-08  .822887870549D+00
     .263378024101D-05  .512489350513D-02  .675022602081D-05  .515375523376D+04
     .554400000000D+06  .335276126862D-07 -.148039547086D+01  .484287738800D-07
     .988833839504D+00  .266031250000D+03  .498712080880D+00 -.794318800852D-08
     .274297139863D-09  .100000000000D+01  .182600000000D+04  .000000000000D+00
     .240000000000D+01  .000000000000D+00 -.121071934700D-07  .110000000000D+02
     .547206000000D+06  .400000000000D+01
13 15  1 10 10  0  0.0 -.774157233536D-04 -.363797880709D-11  .000000000000D+00
     .144000000000D+03 -.253125000000D+01  .432660879205D-08  .199460471694D+01
    -.931322574615D-07  .533739617094D-02  .599585473537D-05  .515368476295D+04
     .554400000000D+06  .800937414169D-07  .277429586136D+01  .100582838058D-06
     .975467802161D+00  .271500000000D+03  .207346243532D+01 -.793568769610D-08
    -.248938940735D-09  .100000000000D+01  .182600000000D+04  .000000000000D+00
     .340000000000D+01  .000000000000D+00 -.111758708954D-07  .144000000000D+03
     .547206000000D+06  .400000000000D+01
14 15  1 10 10  0  0.0  .981893390417D-04 -.352429196937D-11  .000000000000D+00
     .560000000000D+02 -.812500000000D+00  .444697094848D-08 -.242754463881D+01
     .149011611938D-07  .774465419818D-02  .569969415665D-05  .515376864815D+04
     .554400000000D+06  .856816768646D-07  .274062741326D+01 -.614672899246D-07
     .967942640799D+00  .274156250000D+03 -.196678552003D+01 -.792497296408D-08
    -.174650132022D-09  .100000000000D+01  .182600000000D+04  .000000000000D+00
     .240000000000D+01  .000000000000D+00 -.931322574615D-08  .560000000000D+02
     .547206000000D+06  .400000000000D+01
15 15  1 10 10  0  0.0 -.225474126637D-03 -.227373675443D-11  .000000000000D+00
     .880000000000D+02  .871875000000D+01  .532915055194D-08 -.309199429304D+01
     .433996319771D-06  .701065745670D-02  .536814332008D-05  .515357154274D+04
     .554400000000D+06 -.689178705215D-07  .262111059911D+01 -.298023223877D-07
     .934467799672D+00  .264093750000D+03  .354387422321D+00 -.844749472921D-08
    -.140720147273D-09  .100000000000D+01  .182600000000D+04  .000000000000D+00
     .240000000000D+01  .000000000000D+00 -.102445483208D-07  .880000000000D+02
     .547206000000D+06  .400000000000D+01
16 15  1 10 10  0  0.0 -.166166573763D-03  .318323145621D-11  .000000000000D+00
     .260000000000D+02  .535625000000D+02  .394445001646D-08 -.131374570957D+01
     .260770320892D-05  .790519255679D-02  .610388815403D-05  .515372628593D+04
     .554400000000D+06  .372529029846D-07 -.146174838849D+01 -.124797224998D-06
     .989397023466D+00  .273406250000D+03  .228776977982D+00 -.785497004817D-08
     .371444043564D-09  .100000000000D+01  .182600000000D+04  .000000000000D+00
     .240000000000D+01  .000000000000D+00 -.102445483208D-07  .260000000000D+02
     .547206000000D+06  .400000000000D+01
17 15  1 10 10  0  0.0 -.149139668792D-03 -.216004991671D-11  .000000000000D+00
     .720000000000D+02 -.571562500000D+02  .458054794106D-08 -.224066146969D+01
    -.285170972347D-05  .997212342918D-02  .404007732868D-05  .515369730949D+04
     .554400000000D+06  .124797224998D-06 -.432822878182D+00  .745058059692D-08
     .971203771930D+00  .304625000000D+03 -.205574415233D+01 -.810426614664D-08
     .821462788651D-11  .100000000000D+01  .182600000000D+04  .000000000000D+00
     .240000000000D+01  .000000000000D+00 -.107102096081D-07  .720000000000D+02
     .547206000000D+06  .400000000000D+01
18 15  1 10 10  0  0.0  .371264293790D-03  .272848410532D-11  .000000000000D+00
     .106000000000D+03  .376562500000D+02  .552987319856D-08 -.755970687019D+00
     .208057463169D-05  .155626720516D-01  .803358852863D-05  .515375148201D+04
     .554400000000D+06 -.949949026108D-07  .160125346636D+01  .271946191788D-06
     .924869959883D+00  .208281250000D+03 -.199602300870D+01 -.873250660109D-08
     .168221292806D-09  .100000000000D+01  .182600000000D+04  .000000000000D+00
     .340000000000D+01  .000000000000D+00 -.111758708954D-07  .106000000000D+03
     .547206000000D+06  .400000000000D+01
20 15  1 10 10  0  0.0  .277047511190D-03  .420641299570D-11  .000000000000D+00
     .810000000000D+02  .463437500000D+02  .539593904823D-08 -.483658217895D+00
     .240467488766D-05  .583706295583D-02  .854767858982D-05  .515578096390D+04
     .554400000000D+06 -.204890966415D-07  .154843750819D+01  .102445483208D-06
     .926035953869D+00  .194281250000D+03  .123674184925D+01 -.852464079979D-08
     .271439877989D-09  .100000000000D+01  .182600000000D+04  .000000000000D+00
     .340000000000D+01  .000000000000D+00 -.838190317154D-08  .810000000000D+02
     .547206000000D+06  .400000000000D+01
21 15  1 10 10  0  0.0 -.405359547585D-03 -.227373675443D-11  .000000000000D+00
     .510000000000D+02 -.543125000000D+02  .526200489791D-08  .236913055397D+00
    -.259280204773D-05  .219812588766D-01  .927597284317D-05  .515363297844D+04
     .554400000000D+06 -.324100255966D-06  .557261424198D+00  .152736902237D-06
     .933539573762D+00  .191375000000D+03 -.196140098525D+01 -.870786271743D-08
    -.173221501085D-09  .100000000000D+01  .182600000000D+04  .000000000000D+00
     .240000000000D+01  .000000000000D+00 -.116415321827D-07  .510000000000D+02
     .547206000000D+06  .400000000000D+01
22 15  1 10 10  0  0.0  .305815134197D-03  .409272615798D-11  .000000000000D+00
     .360000000000D+02  .360312500000D+02  .540665378026D-08 -.125268566089D+01
     .182166695595D-05  .734982616268D-02  .783987343311D-05  .515370757675D+04
     .554400000000D+06  .128522515297D-06  .160269320158D+01  .154599547386D-06
     .922671341765D+00  .208562500000D+03 -.206685474157D+01 -.845928093443D-08
     .140720147273D-09  .100000000000D+01  .182600000000D+04  .000000000000D+00
     .240000000000D+01  .000000000000D+00 -.176951289177D-07  .360000000000D+02
     .547206000000D+06  .400000000000D+01
23 15  1 10 10  0  0.0 -.806730240583D-04 -.272848410532D-11  .000000000000D+00
     .560000000000D+02 -.318750000000D+01  .497377860641D-08  .276462943704D+01
    -.251457095146D-06  .970246910583D-02  .543892383575D-05  .515367576981D+04
     .554400000000D+06 -.968575477600D-07  .267121819853D+01 -.128522515297D-06
     .949634661375D+00  .269281250000D+03 -.271554973654D+01 -.819819863074D-08
    -.205008539429D-09  .100000000000D+01  .182600000000D+04  .000000000000D+00
     .240000000000D+01  .000000000000D+00 -.200234353542D-07  .560000000000D+02
     .547206000000D+06  .400000000000D+01
24 15  1 10 10  0  0.0 -.415421091020D-04 -.682121026330D-12  .000000000000D+00
     .400000000000D+01 -.156250000000D+00  .445197115675D-08  .213410180143D+01
     .372529029846D-07  .286647304893D-02  .930018723011D-05  .515369698715D+04
     .554400000000D+06  .745058059692D-08 -.258545022567D+01  .242143869400D-07
     .955128672166D+00  .195375000000D+03  .244486653976D+00 -.806283584948D-08
    -.236081262304D-09  .100000000000D+01  .182600000000D+04  .000000000000D+00
     .240000000000D+01  .000000000000D+00  .279396772385D-08  .400000000000D+01
     .547206000000D+06  .400000000000D+01
25 15  1 10 10  0  0.0  .416254624724D-05 -.238742359215D-11  .000000000000D+00
     .700000000000D+02  .461250000000D+02  .427160650099D-08  .102078469304D+00
     .242330133915D-05  .397878221702D-02  .665523111820D-05  .515373968506D+04
     .554400000000D+06  .260770320892D-07 -.152545297905D+01  .167638063431D-07
     .977434955918D+00  .263031250000D+03  .662471639769D+00 -.805604985253D-08
     .277511559470D-09  .100000000000D+01  .182600000000D+04  .000000000000D+00
     .240000000000D+01  .000000000000D+00  .512227416039D-08  .700000000000D+02
     .547206000000D+06  .400000000000D+01
